{
  "type": "FeatureCollection",
  "features": [
    {
      "type": "Feature",
      "properties": {
        "norad_id": 36744,
        "name": "COMS 1",
        "group": "weather",
        "lat": 0.09286093390448237,
        "lon": 78.79997148735282,
        "alt_km": 35788.833320996455,
        "timestamp": "2025-12-21T14:40:47.552973+00:00",
        "meta_object_name": "COMS 1",
        "meta_object_id": "2010-032A",
        "meta_epoch": "2025-12-20T17:15:48.580128",
        "meta_mean_motion": 1.00272163,
        "meta_eccentricity": 6.966e-05,
        "meta_inclination": 4.3584,
        "meta_ra_of_asc_node": 77.9096,
        "meta_arg_of_pericenter": 203.045,
        "meta_mean_anomaly": 195.7243,
        "meta_ephemeris_type": 0,
        "meta_classification_type": "U",
        "meta_norad_cat_id": 36744,
        "meta_element_set_no": 999,
        "meta_rev_at_epoch": 4930,
        "meta_bstar": 0,
        "meta_mean_motion_dot": -3.24e-06,
        "meta_mean_motion_ddot": 0,
        "tle_line1": "1 36744U 10032A   25354.71931227 -.00000324  00000+0  00000+0 0  9999",
        "tle_line2": "2 36744   4.3584  77.9096 0000696 203.0450 195.7243  1.00272163 49302"
      },
      "geometry": {
        "type": "Point",
        "coordinates": [
          78.79997148735282,
          0.09286093390448237
        ]
      }
    },
    {
      "type": "Feature",
      "properties": {
        "norad_id": 37214,
        "name": "FENGYUN 3B",
        "group": "weather",
        "lat": -16.284443365136916,
        "lon": -146.99951456758168,
        "alt_km": 859.0466155579279,
        "timestamp": "2025-12-21T14:40:47.552985+00:00",
        "meta_object_name": "FENGYUN 3B",
        "meta_object_id": "2010-059A",
        "meta_epoch": "2025-12-21T07:15:58.154688",
        "meta_mean_motion": 14.14791984,
        "meta_eccentricity": 0.00216566,
        "meta_inclination": 98.9897,
        "meta_ra_of_asc_node": 35.34,
        "meta_arg_of_pericenter": 333.4353,
        "meta_mean_anomaly": 90.6578,
        "meta_ephemeris_type": 0,
        "meta_classification_type": "U",
        "meta_norad_cat_id": 37214,
        "meta_element_set_no": 999,
        "meta_rev_at_epoch": 78227,
        "meta_bstar": 2.1984533e-05,
        "meta_mean_motion_dot": -3e-08,
        "meta_mean_motion_ddot": 0,
        "tle_line1": "1 37214U 10059A   25355.30275642 -.00000003  00000+0  21985-4 0  9993",
        "tle_line2": "2 37214  98.9897  35.3400 0021656 333.4353  90.6578 14.14791984782277"
      },
      "geometry": {
        "type": "Point",
        "coordinates": [
          -146.99951456758168,
          -16.284443365136916
        ]
      }
    },
    {
      "type": "Feature",
      "properties": {
        "norad_id": 37849,
        "name": "SUOMI NPP",
        "group": "weather",
        "lat": -7.928927583078104,
        "lon": 111.63998932001756,
        "alt_km": 830.7898093799022,
        "timestamp": "2025-12-21T14:40:47.552997+00:00",
        "meta_object_name": "SUOMI NPP",
        "meta_object_id": "2011-061A",
        "meta_epoch": "2025-12-17T23:31:21.474624",
        "meta_mean_motion": 14.19515682,
        "meta_eccentricity": 0.00023932,
        "meta_inclination": 98.7779,
        "meta_ra_of_asc_node": 289.2746,
        "meta_arg_of_pericenter": 111.1248,
        "meta_mean_anomaly": 249.0184,
        "meta_ephemeris_type": 0,
        "meta_classification_type": "U",
        "meta_norad_cat_id": 37849,
        "meta_element_set_no": 999,
        "meta_rev_at_epoch": 73273,
        "meta_bstar": 4.8615036e-05,
        "meta_mean_motion_dot": 5.8e-07,
        "meta_mean_motion_ddot": 0,
        "tle_line1": "1 37849U 11061A   25351.98010966  .00000058  00000+0  48615-4 0  9995",
        "tle_line2": "2 37849  98.7779 289.2746 0002393 111.1248 249.0184 14.19515682732735"
      },
      "geometry": {
        "type": "Point",
        "coordinates": [
          111.63998932001756,
          -7.928927583078104
        ]
      }
    },
    {
      "type": "Feature",
      "properties": {
        "norad_id": 38552,
        "name": "METEOSAT-10 (MSG-3)",
        "group": "weather",
        "lat": -3.9932707014024884,
        "lon": -49.11999546906294,
        "alt_km": 35782.40435983758,
        "timestamp": "2025-12-21T14:40:47.553010+00:00",
        "meta_object_name": "METEOSAT-10 (MSG-3)",
        "meta_object_id": "2012-035B",
        "meta_epoch": "2025-12-21T01:12:55.511136",
        "meta_mean_motion": 1.00276728,
        "meta_eccentricity": 7.039e-05,
        "meta_inclination": 4.247,
        "meta_ra_of_asc_node": 61.7008,
        "meta_arg_of_pericenter": 268.7079,
        "meta_mean_anomaly": 137.9997,
        "meta_ephemeris_type": 0,
        "meta_classification_type": "U",
        "meta_norad_cat_id": 38552,
        "meta_element_set_no": 999,
        "meta_rev_at_epoch": 4907,
        "meta_bstar": 0,
        "meta_mean_motion_dot": 1.6e-07,
        "meta_mean_motion_ddot": 0,
        "tle_line1": "1 38552U 12035B   25355.05064249  .00000016  00000+0  00000+0 0  9999",
        "tle_line2": "2 38552   4.2470  61.7008 0000703 268.7079 137.9997  1.00276728 49071"
      },
      "geometry": {
        "type": "Point",
        "coordinates": [
          -49.11999546906294,
          -3.9932707014024884
        ]
      }
    },
    {
      "type": "Feature",
      "properties": {
        "norad_id": 38771,
        "name": "METOP-B",
        "group": "weather",
        "lat": 76.42748580920576,
        "lon": -95.33345831876954,
        "alt_km": 811.2575961899256,
        "timestamp": "2025-12-21T14:40:47.553021+00:00",
        "meta_object_name": "METOP-B",
        "meta_object_id": "2012-049A",
        "meta_epoch": "2025-12-21T05:45:43.234272",
        "meta_mean_motion": 14.21411389,
        "meta_eccentricity": 0.00031855,
        "meta_inclination": 98.6786,
        "meta_ra_of_asc_node": 45.0543,
        "meta_arg_of_pericenter": 126.1704,
        "meta_mean_anomaly": 233.9768,
        "meta_ephemeris_type": 0,
        "meta_classification_type": "U",
        "meta_norad_cat_id": 38771,
        "meta_element_set_no": 999,
        "meta_rev_at_epoch": 68798,
        "meta_bstar": 7.0449335e-05,
        "meta_mean_motion_dot": 1.1e-06,
        "meta_mean_motion_ddot": 0,
        "tle_line1": "1 38771U 12049A   25355.24008373  .00000110  00000+0  70449-4 0  9998",
        "tle_line2": "2 38771  98.6786  45.0543 0003185 126.1704 233.9768 14.21411389687981"
      },
      "geometry": {
        "type": "Point",
        "coordinates": [
          -95.33345831876954,
          76.42748580920576
        ]
      }
    },
    {
      "type": "Feature",
      "properties": {
        "norad_id": 39216,
        "name": "INSAT-3D",
        "group": "weather",
        "lat": -0.09661056595976313,
        "lon": 80.10630595448853,
        "alt_km": 35791.80222380065,
        "timestamp": "2025-12-21T14:40:47.553033+00:00",
        "meta_object_name": "INSAT-3D",
        "meta_object_id": "2013-038B",
        "meta_epoch": "2025-12-21T00:30:38.784672",
        "meta_mean_motion": 1.00276813,
        "meta_eccentricity": 0.00018037,
        "meta_inclination": 1.465,
        "meta_ra_of_asc_node": 84.9054,
        "meta_arg_of_pericenter": 152.2631,
        "meta_mean_anomaly": 349.8222,
        "meta_ephemeris_type": 0,
        "meta_classification_type": "U",
        "meta_norad_cat_id": 39216,
        "meta_element_set_no": 999,
        "meta_rev_at_epoch": 4529,
        "meta_bstar": 0,
        "meta_mean_motion_dot": -3.17e-06,
        "meta_mean_motion_ddot": 0,
        "tle_line1": "1 39216U 13038B   25355.02128223 -.00000317  00000+0  00000+0 0  9996",
        "tle_line2": "2 39216   1.4650  84.9054 0001803 152.2631 349.8222  1.00276813 45299"
      },
      "geometry": {
        "type": "Point",
        "coordinates": [
          80.10630595448853,
          -0.09661056595976313
        ]
      }
    },
    {
      "type": "Feature",
      "properties": {
        "norad_id": 39260,
        "name": "FENGYUN 3C",
        "group": "weather",
        "lat": 14.619617107564826,
        "lon": 155.08764591496967,
        "alt_km": 830.1599755977913,
        "timestamp": "2025-12-21T14:40:47.553044+00:00",
        "meta_object_name": "FENGYUN 3C",
        "meta_object_id": "2013-052A",
        "meta_epoch": "2025-12-21T05:25:16.953024",
        "meta_mean_motion": 14.15698708,
        "meta_eccentricity": 0.00147552,
        "meta_inclination": 98.4772,
        "meta_ra_of_asc_node": 332.4912,
        "meta_arg_of_pericenter": 171.3558,
        "meta_mean_anomaly": 188.7874,
        "meta_ephemeris_type": 0,
        "meta_classification_type": "U",
        "meta_norad_cat_id": 39260,
        "meta_element_set_no": 999,
        "meta_rev_at_epoch": 63338,
        "meta_bstar": 5.03773e-05,
        "meta_mean_motion_dot": 5.8e-07,
        "meta_mean_motion_ddot": 0,
        "tle_line1": "1 39260U 13052A   25355.22589066  .00000058  00000+0  50377-4 0  9997",
        "tle_line2": "2 39260  98.4772 332.4912 0014755 171.3558 188.7874 14.15698708633380"
      },
      "geometry": {
        "type": "Point",
        "coordinates": [
          155.08764591496967,
          14.619617107564826
        ]
      }
    }
  ]
}